{
"type": "FeatureCollection",
"name": "Speed_Detector",
"crs": { "type": "name", "properties": { "name": "urn:ogc:def:crs:OGC:1.3:CRS84" } },
"features": [
{ "type": "Feature", "properties": { "ID": 8084, "ROADNAME": "Connecticut-Avenue", "ROADDIR": "N", "LATITUDE": 38.965833, "LONGITUDE": -77.075833, "SPEED": 0, "GIS_ID": "SpeedDetector_1", "SE_ANNO_CAD_DATA": null, "GLOBALID": "{EED030CA-651E-41F5-91C0-4430998F8934}", "CREATOR": null, "CREATED": null, "EDITOR": null, "EDITED": null, "OBJECTID": 1 }, "geometry": { "type": "Point", "coordinates": [ -77.076032289400914, 38.965839206413598 ] } },
{ "type": "Feature", "properties": { "ID": 8085, "ROADNAME": "Connecticut-Avenue", "ROADDIR": "S", "LATITUDE": 38.965833, "LONGITUDE": -77.075833, "SPEED": 0, "GIS_ID": "SpeedDetector_2", "SE_ANNO_CAD_DATA": null, "GLOBALID": "{BFE0D8A1-B758-44C2-BA7A-088190D42F1B}", "CREATOR": null, "CREATED": null, "EDITOR": null, "EDITED": null, "OBJECTID": 2 }, "geometry": { "type": "Point", "coordinates": [ -77.076030058099136, 38.965835172167893 ] } },
{ "type": "Feature", "properties": { "ID": 8091, "ROADNAME": "Connecticut-Avenue", "ROADDIR": "N", "LATITUDE": 38.959444, "LONGITUDE": -77.072222, "SPEED": 0, "GIS_ID": "SpeedDetector_3", "SE_ANNO_CAD_DATA": null, "GLOBALID": "{5752C55F-0082-437A-8006-DBF18FB69D4E}", "CREATOR": null, "CREATED": null, "EDITOR": null, "EDITED": null, "OBJECTID": 3 }, "geometry": { "type": "Point", "coordinates": [ -77.072340494720592, 38.959453019176884 ] } },
{ "type": "Feature", "properties": { "ID": 8090, "ROADNAME": "Connecticut-Avenue", "ROADDIR": "S", "LATITUDE": 38.959444, "LONGITUDE": -77.072222, "SPEED": 0, "GIS_ID": "SpeedDetector_4", "SE_ANNO_CAD_DATA": null, "GLOBALID": "{EE149ECE-6D1C-4855-A3DC-74C947009747}", "CREATOR": null, "CREATED": null, "EDITOR": null, "EDITED": null, "OBJECTID": 4 }, "geometry": { "type": "Point", "coordinates": [ -77.072337825893868, 38.959449480581014 ] } },
{ "type": "Feature", "properties": { "ID": 8044, "ROADNAME": "Connecticut-Avenue", "ROADDIR": "N", "LATITUDE": 38.955556, "LONGITUDE": -77.07, "SPEED": 0, "GIS_ID": "SpeedDetector_5", "SE_ANNO_CAD_DATA": null, "GLOBALID": "{00C08C5D-1F3F-4859-BC6F-2F8FFCCC5F75}", "CREATOR": null, "CREATED": null, "EDITOR": null, "EDITED": null, "OBJECTID": 5 }, "geometry": { "type": "Point", "coordinates": [ -77.070101882506847, 38.955535823302462 ] } },
{ "type": "Feature", "properties": { "ID": 8045, "ROADNAME": "Connecticut-Avenue", "ROADDIR": "S", "LATITUDE": 38.955556, "LONGITUDE": -77.07, "SPEED": 0, "GIS_ID": "SpeedDetector_6", "SE_ANNO_CAD_DATA": null, "GLOBALID": "{533C4F16-2556-44B4-9B7C-D511805A1028}", "CREATOR": null, "CREATED": null, "EDITOR": null, "EDITED": null, "OBJECTID": 6 }, "geometry": { "type": "Point", "coordinates": [ -77.070093374758187, 38.955519163105627 ] } },
{ "type": "Feature", "properties": { "ID": 8086, "ROADNAME": "Connecticut-Avenue", "ROADDIR": "N", "LATITUDE": 38.942778, "LONGITUDE": -77.0625, "SPEED": 0, "GIS_ID": "SpeedDetector_7", "SE_ANNO_CAD_DATA": null, "GLOBALID": "{3898B4CC-B8A3-4BDB-9361-096B27A53A0A}", "CREATOR": null, "CREATED": null, "EDITOR": null, "EDITED": null, "OBJECTID": 7 }, "geometry": { "type": "Point", "coordinates": [ -77.062620931937147, 38.942757888127112 ] } },
{ "type": "Feature", "properties": { "ID": 8087, "ROADNAME": "Connecticut-Avenue", "ROADDIR": "S", "LATITUDE": 38.942778, "LONGITUDE": -77.0625, "SPEED": 0, "GIS_ID": "SpeedDetector_8", "SE_ANNO_CAD_DATA": null, "GLOBALID": "{BE129510-F919-47B6-8BB4-19F521975586}", "CREATOR": null, "CREATED": null, "EDITOR": null, "EDITED": null, "OBJECTID": 8 }, "geometry": { "type": "Point", "coordinates": [ -77.062616762050851, 38.942751386374887 ] } },
{ "type": "Feature", "properties": { "ID": 8081, "ROADNAME": "Connecticut-Avenue", "ROADDIR": "N", "LATITUDE": 38.937778, "LONGITUDE": -77.059722, "SPEED": 0, "GIS_ID": "SpeedDetector_9", "SE_ANNO_CAD_DATA": null, "GLOBALID": "{AB53100B-EF82-43DA-941B-E862FB17CE95}", "CREATOR": null, "CREATED": null, "EDITOR": null, "EDITED": null, "OBJECTID": 9 }, "geometry": { "type": "Point", "coordinates": [ -77.059790505983983, 38.937795439295385 ] } },
{ "type": "Feature", "properties": { "ID": 8080, "ROADNAME": " Connecticut-Avenue", "ROADDIR": "S", "LATITUDE": 38.937778, "LONGITUDE": -77.059722, "SPEED": 0, "GIS_ID": "SpeedDetector_10", "SE_ANNO_CAD_DATA": null, "GLOBALID": "{40437559-41B1-4B76-8123-6662674F20CC}", "CREATOR": null, "CREATED": null, "EDITOR": null, "EDITED": null, "OBJECTID": 10 }, "geometry": { "type": "Point", "coordinates": [ -77.059785794156141, 38.937788487298562 ] } },
{ "type": "Feature", "properties": { "ID": 8082, "ROADNAME": "Rhode-Island-Avenue", "ROADDIR": "E", "LATITUDE": 38.935, "LONGITUDE": -76.963611, "SPEED": 0, "GIS_ID": "SpeedDetector_11", "SE_ANNO_CAD_DATA": null, "GLOBALID": "{3B484A76-5A36-4726-AF14-EABDF178A13C}", "CREATOR": null, "CREATED": null, "EDITOR": null, "EDITED": null, "OBJECTID": 11 }, "geometry": { "type": "Point", "coordinates": [ -76.963627457284232, 38.935052858080255 ] } },
{ "type": "Feature", "properties": { "ID": 8083, "ROADNAME": "Rhode-Island-Avenue", "ROADDIR": "W", "LATITUDE": 38.935, "LONGITUDE": -76.963611, "SPEED": 0, "GIS_ID": "SpeedDetector_12", "SE_ANNO_CAD_DATA": null, "GLOBALID": "{BB9E00CC-F243-4BEA-8990-4A7DA531557A}", "CREATOR": null, "CREATED": null, "EDITOR": null, "EDITED": null, "OBJECTID": 12 }, "geometry": { "type": "Point", "coordinates": [ -76.963635406467233, 38.9350482483025 ] } },
{ "type": "Feature", "properties": { "ID": 8075, "ROADNAME": "Rhode-Island-Avenue", "ROADDIR": "E", "LATITUDE": 38.931111, "LONGITUDE": -76.971111, "SPEED": 0, "GIS_ID": "SpeedDetector_13", "SE_ANNO_CAD_DATA": null, "GLOBALID": "{B7B1DDBF-2533-4128-B116-093AEE53DBFC}", "CREATOR": null, "CREATED": null, "EDITOR": null, "EDITED": null, "OBJECTID": 13 }, "geometry": { "type": "Point", "coordinates": [ -76.971005351456228, 38.931269009379179 ] } },
{ "type": "Feature", "properties": { "ID": 8074, "ROADNAME": "Rhode-Island-Avenue", "ROADDIR": "W", "LATITUDE": 38.931111, "LONGITUDE": -76.971111, "SPEED": 0, "GIS_ID": "SpeedDetector_14", "SE_ANNO_CAD_DATA": null, "GLOBALID": "{753233DF-F060-4DB6-A1F7-23E104C150A9}", "CREATOR": null, "CREATED": null, "EDITOR": null, "EDITED": null, "OBJECTID": 14 }, "geometry": { "type": "Point", "coordinates": [ -76.971044596908158, 38.931246029903413 ] } },
{ "type": "Feature", "properties": { "ID": 8057, "ROADNAME": "Rhode-Island-Avenue", "ROADDIR": "E", "LATITUDE": 38.92556, "LONGITUDE": -76.9825, "SPEED": 0, "GIS_ID": "SpeedDetector_15", "SE_ANNO_CAD_DATA": null, "GLOBALID": "{ABFA9EF9-85DB-4E9C-8FEE-8E8BD2F5BF43}", "CREATOR": null, "CREATED": null, "EDITOR": null, "EDITED": null, "OBJECTID": 15 }, "geometry": { "type": "Point", "coordinates": [ -76.982556243155315, 38.925632622209413 ] } },
{ "type": "Feature", "properties": { "ID": 8056, "ROADNAME": "Rhode-Island-Avenue", "ROADDIR": "W", "LATITUDE": 38.925556, "LONGITUDE": -76.9825, "SPEED": 0, "GIS_ID": "SpeedDetector_16", "SE_ANNO_CAD_DATA": null, "GLOBALID": "{D5A843AC-A394-4CEC-8BB4-BBCFC69012B6}", "CREATOR": null, "CREATED": null, "EDITOR": null, "EDITED": null, "OBJECTID": 16 }, "geometry": { "type": "Point", "coordinates": [ -76.982562160185637, 38.925628776540499 ] } },
{ "type": "Feature", "properties": { "ID": 8076, "ROADNAME": "Connecticut-Avenue", "ROADDIR": "N", "LATITUDE": 38.923056, "LONGITUDE": -77.051111, "SPEED": 0, "GIS_ID": "SpeedDetector_17", "SE_ANNO_CAD_DATA": null, "GLOBALID": "{E74931B7-8137-4203-805A-7C084A38A22F}", "CREATOR": null, "CREATED": null, "EDITOR": null, "EDITED": null, "OBJECTID": 17 }, "geometry": { "type": "Point", "coordinates": [ -77.051150356465769, 38.923076211647526 ] } },
{ "type": "Feature", "properties": { "ID": 8077, "ROADNAME": " Connecticut-Avenue", "ROADDIR": "S", "LATITUDE": 38.923056, "LONGITUDE": -77.051111, "SPEED": 0, "GIS_ID": "SpeedDetector_18", "SE_ANNO_CAD_DATA": null, "GLOBALID": "{62034E3F-7F70-4802-9C31-DD6833A38906}", "CREATOR": null, "CREATED": null, "EDITOR": null, "EDITED": null, "OBJECTID": 18 }, "geometry": { "type": "Point", "coordinates": [ -77.051147906729085, 38.92306928531881 ] } },
{ "type": "Feature", "properties": { "ID": 8059, "ROADNAME": "Rhode-Island-Avenue", "ROADDIR": "E", "LATITUDE": 38.919722, "LONGITUDE": -77.0, "SPEED": 0, "GIS_ID": "SpeedDetector_19", "SE_ANNO_CAD_DATA": null, "GLOBALID": "{208B00C7-D274-4C83-9F9A-8CFE3268A421}", "CREATOR": null, "CREATED": null, "EDITOR": null, "EDITED": null, "OBJECTID": 19 }, "geometry": { "type": "Point", "coordinates": [ -77.000066088031346, 38.91987502903644 ] } },
{ "type": "Feature", "properties": { "ID": 8058, "ROADNAME": "Rhode-Island-Avenue", "ROADDIR": "W", "LATITUDE": 38.919722, "LONGITUDE": -77.0, "SPEED": 0, "GIS_ID": "SpeedDetector_20", "SE_ANNO_CAD_DATA": null, "GLOBALID": "{23D07941-98EF-409D-8C34-22D65FFEE195}", "CREATOR": null, "CREATED": null, "EDITOR": null, "EDITED": null, "OBJECTID": 20 }, "geometry": { "type": "Point", "coordinates": [ -77.000110334012732, 38.919855273739614 ] } },
{ "type": "Feature", "properties": { "ID": 8069, "ROADNAME": "Rhode-Island-Avenue", "ROADDIR": "E", "LATITUDE": 38.916667, "LONGITUDE": -77.009444, "SPEED": 0, "GIS_ID": "SpeedDetector_21", "SE_ANNO_CAD_DATA": null, "GLOBALID": "{3AE22463-56A0-4BDE-9455-EEB02079BB3E}", "CREATOR": null, "CREATED": null, "EDITOR": null, "EDITED": null, "OBJECTID": 21 }, "geometry": { "type": "Point", "coordinates": [ -77.009402804516142, 38.916731896369257 ] } },
{ "type": "Feature", "properties": { "ID": 8068, "ROADNAME": "Rhode-Island-Avenue", "ROADDIR": "W", "LATITUDE": 38.916667, "LONGITUDE": -77.009444, "SPEED": 0, "GIS_ID": "SpeedDetector_22", "SE_ANNO_CAD_DATA": null, "GLOBALID": "{917F4AD9-AB54-472C-89FB-5031B19F37EC}", "CREATOR": null, "CREATED": null, "EDITOR": null, "EDITED": null, "OBJECTID": 22 }, "geometry": { "type": "Point", "coordinates": [ -77.009411336894473, 38.916728202265702 ] } },
{ "type": "Feature", "properties": { "ID": 8096, "ROADNAME": "Connecticut-Avenue", "ROADDIR": "N", "LATITUDE": 38.914722, "LONGITUDE": -77.046111, "SPEED": 0, "GIS_ID": "SpeedDetector_23", "SE_ANNO_CAD_DATA": null, "GLOBALID": "{8BBFF93E-B873-40D4-B3B7-C07ADC2FD344}", "CREATOR": null, "CREATED": null, "EDITOR": null, "EDITED": null, "OBJECTID": 23 }, "geometry": { "type": "Point", "coordinates": [ -77.0461339629653, 38.914744197795187 ] } },
{ "type": "Feature", "properties": { "ID": 8095, "ROADNAME": "Connecticut-Avenue", "ROADDIR": "S", "LATITUDE": 38.914722, "LONGITUDE": -77.046111, "SPEED": 0, "GIS_ID": "SpeedDetector_24", "SE_ANNO_CAD_DATA": null, "GLOBALID": "{13C14C65-D6C1-46CB-862F-1E352BB8F111}", "CREATOR": null, "CREATED": null, "EDITOR": null, "EDITED": null, "OBJECTID": 24 }, "geometry": { "type": "Point", "coordinates": [ -77.046132862298478, 38.914736063701135 ] } },
{ "type": "Feature", "properties": { "ID": 8078, "ROADNAME": "Rhode-Island-Avenue", "ROADDIR": "E", "LATITUDE": 38.914167, "LONGITUDE": -77.015833, "SPEED": 0, "GIS_ID": "SpeedDetector_25", "SE_ANNO_CAD_DATA": null, "GLOBALID": "{2953FA81-DD93-4FEC-9EBF-21A7002E63B1}", "CREATOR": null, "CREATED": null, "EDITOR": null, "EDITED": null, "OBJECTID": 25 }, "geometry": { "type": "Point", "coordinates": [ -77.0159527322581, 38.914291809559046 ] } },
{ "type": "Feature", "properties": { "ID": 8079, "ROADNAME": "Rhode-Island-Avenue", "ROADDIR": "W", "LATITUDE": 38.914167, "LONGITUDE": -77.015833, "SPEED": 0, "GIS_ID": "SpeedDetector_26", "SE_ANNO_CAD_DATA": null, "GLOBALID": "{5B81577B-0D39-47BD-9702-AF33C53ACE0F}", "CREATOR": null, "CREATED": null, "EDITOR": null, "EDITED": null, "OBJECTID": 26 }, "geometry": { "type": "Point", "coordinates": [ -77.015958485383493, 38.914289142305577 ] } },
{ "type": "Feature", "properties": { "ID": 8055, "ROADNAME": "Rhode-Island-Avenue", "ROADDIR": "E", "LATITUDE": 38.9125, "LONGITUDE": -77.021667, "SPEED": 0, "GIS_ID": "SpeedDetector_27", "SE_ANNO_CAD_DATA": null, "GLOBALID": "{01C4EE5A-ADA8-4DF5-AA40-AFDDD3F9FB5F}", "CREATOR": null, "CREATED": null, "EDITOR": null, "EDITED": null, "OBJECTID": 27 }, "geometry": { "type": "Point", "coordinates": [ -77.021636959298661, 38.912426781601326 ] } },
{ "type": "Feature", "properties": { "ID": 8054, "ROADNAME": "Rhode-Island-Avenue", "ROADDIR": "W", "LATITUDE": 38.9125, "LONGITUDE": -77.021667, "SPEED": 0, "GIS_ID": "SpeedDetector_28", "SE_ANNO_CAD_DATA": null, "GLOBALID": "{55AB84F6-658F-4289-93F4-D7939D9CDFCE}", "CREATOR": null, "CREATED": null, "EDITOR": null, "EDITED": null, "OBJECTID": 28 }, "geometry": { "type": "Point", "coordinates": [ -77.021640798140268, 38.912424420705172 ] } },
{ "type": "Feature", "properties": { "ID": 8050, "ROADNAME": "Connecticut-Avenue", "ROADDIR": "N", "LATITUDE": 38.911944, "LONGITUDE": -77.045, "SPEED": 0, "GIS_ID": "SpeedDetector_29", "SE_ANNO_CAD_DATA": null, "GLOBALID": "{2A1DF13B-972A-49CB-BFB5-3860B8799928}", "CREATOR": null, "CREATED": null, "EDITOR": null, "EDITED": null, "OBJECTID": 29 }, "geometry": { "type": "Point", "coordinates": [ -77.044882697806074, 38.912085630515818 ] } },
{ "type": "Feature", "properties": { "ID": 8051, "ROADNAME": "Connecticut-Avenue", "ROADDIR": "S", "LATITUDE": 38.911944, "LONGITUDE": -77.045, "SPEED": 0, "GIS_ID": "SpeedDetector_30", "SE_ANNO_CAD_DATA": null, "GLOBALID": "{058D0D1D-5024-4B03-83E7-F6DC2A5AC694}", "CREATOR": null, "CREATED": null, "EDITOR": null, "EDITED": null, "OBJECTID": 30 }, "geometry": { "type": "Point", "coordinates": [ -77.044876569368824, 38.912076210144434 ] } },
{ "type": "Feature", "properties": { "ID": 8097, "ROADNAME": "Connecticut-Avenue", "ROADDIR": "N", "LATITUDE": 38.905833, "LONGITUDE": -77.041111, "SPEED": 0, "GIS_ID": "SpeedDetector_31", "SE_ANNO_CAD_DATA": null, "GLOBALID": "{98028EBA-94C0-4921-B4EC-F907918EBAEB}", "CREATOR": null, "CREATED": null, "EDITOR": null, "EDITED": null, "OBJECTID": 31 }, "geometry": { "type": "Point", "coordinates": [ -77.041109588855832, 38.905754682771338 ] } },
{ "type": "Feature", "properties": { "ID": 8098, "ROADNAME": "Connecticut-Avenue", "ROADDIR": "S", "LATITUDE": 38.905833, "LONGITUDE": -77.041111, "SPEED": 0, "GIS_ID": "SpeedDetector_32", "SE_ANNO_CAD_DATA": null, "GLOBALID": "{390A2335-1E2A-4B58-B9CE-5E7336DC38A2}", "CREATOR": null, "CREATED": null, "EDITOR": null, "EDITED": null, "OBJECTID": 32 }, "geometry": { "type": "Point", "coordinates": [ -77.041107684338627, 38.905750845883553 ] } },
{ "type": "Feature", "properties": { "ID": 8049, "ROADNAME": "Connecticut-Avenue", "ROADDIR": "N", "LATITUDE": 38.902222, "LONGITUDE": -77.039444, "SPEED": 0, "GIS_ID": "SpeedDetector_33", "SE_ANNO_CAD_DATA": null, "GLOBALID": "{DC5FF96D-21F3-423D-8EA8-7DB28F2566EF}", "CREATOR": null, "CREATED": null, "EDITOR": null, "EDITED": null, "OBJECTID": 33 }, "geometry": { "type": "Point", "coordinates": [ -77.039453573102932, 38.902220294307838 ] } },
{ "type": "Feature", "properties": { "ID": 8048, "ROADNAME": "Connecticut-Avenue", "ROADDIR": "S", "LATITUDE": 38.902222, "LONGITUDE": -77.039444, "SPEED": 0, "GIS_ID": "SpeedDetector_34", "SE_ANNO_CAD_DATA": null, "GLOBALID": "{856F8E35-DB68-4F2E-8782-5CB99256D297}", "CREATOR": null, "CREATED": null, "EDITOR": null, "EDITED": null, "OBJECTID": 34 }, "geometry": { "type": "Point", "coordinates": [ -77.039452762795747, 38.902214313032083 ] } },
{ "type": "Feature", "properties": { "ID": 8067, "ROADNAME": "Pennsylvania-Anenue", "ROADDIR": "W", "LATITUDE": 38.893611, "LONGITUDE": -77.022778, "SPEED": 0, "GIS_ID": "SpeedDetector_35", "SE_ANNO_CAD_DATA": null, "GLOBALID": "{C64E337B-AB4D-4462-93AC-4291BF9BA5D7}", "CREATOR": null, "CREATED": null, "EDITOR": null, "EDITED": null, "OBJECTID": 35 }, "geometry": { "type": "Point", "coordinates": [ -77.022897319087264, 38.89358771850187 ] } },
{ "type": "Feature", "properties": { "ID": 8066, "ROADNAME": "Pennsylvania-Anenue", "ROADDIR": "E", "LATITUDE": 38.893611, "LONGITUDE": -77.022778, "SPEED": 0, "GIS_ID": "SpeedDetector_36", "SE_ANNO_CAD_DATA": null, "GLOBALID": "{7EFDB587-C80D-4D02-A6F5-306E22832503}", "CREATOR": null, "CREATED": null, "EDITOR": null, "EDITED": null, "OBJECTID": 36 }, "geometry": { "type": "Point", "coordinates": [ -77.022887208641976, 38.893584207218773 ] } },
{ "type": "Feature", "properties": { "ID": 8065, "ROADNAME": "Pennsylvania-Avenue", "ROADDIR": "W", "LATITUDE": 38.891667, "LONGITUDE": -77.016389, "SPEED": 0, "GIS_ID": "SpeedDetector_37", "SE_ANNO_CAD_DATA": null, "GLOBALID": "{57840EA9-394D-415D-9344-C13713053637}", "CREATOR": null, "CREATED": null, "EDITOR": null, "EDITED": null, "OBJECTID": 37 }, "geometry": { "type": "Point", "coordinates": [ -77.016405415085416, 38.89176654316816 ] } },
{ "type": "Feature", "properties": { "ID": 8064, "ROADNAME": "Pennsylvania-Avenue", "ROADDIR": "E", "LATITUDE": 38.891667, "LONGITUDE": -77.016389, "SPEED": 0, "GIS_ID": "SpeedDetector_38", "SE_ANNO_CAD_DATA": null, "GLOBALID": "{A2CC3806-330C-4C92-8319-5B7D82E4D74C}", "CREATOR": null, "CREATED": null, "EDITOR": null, "EDITED": null, "OBJECTID": 38 }, "geometry": { "type": "Point", "coordinates": [ -77.016362706138835, 38.891758207405388 ] } },
{ "type": "Feature", "properties": { "ID": 8041, "ROADNAME": "South-Capitol-St", "ROADDIR": "N", "LATITUDE": 0.0, "LONGITUDE": 0.0, "SPEED": 0, "GIS_ID": "SpeedDetector_39", "SE_ANNO_CAD_DATA": null, "GLOBALID": "{6A32CBDF-C1EC-441D-B4EA-9C017DB288DC}", "CREATOR": null, "CREATED": null, "EDITOR": null, "EDITED": null, "OBJECTID": 39 }, "geometry": { "type": "Point", "coordinates": [ -77.009069353904891, 38.872764327922468 ] } },
{ "type": "Feature", "properties": { "ID": 8040, "ROADNAME": "South-Capitol-St", "ROADDIR": "S", "LATITUDE": 0.0, "LONGITUDE": 0.0, "SPEED": 0, "GIS_ID": "SpeedDetector_40", "SE_ANNO_CAD_DATA": null, "GLOBALID": "{07906A46-5948-4474-8DAA-2CFE80D66BD4}", "CREATOR": null, "CREATED": null, "EDITOR": null, "EDITED": null, "OBJECTID": 40 }, "geometry": { "type": "Point", "coordinates": [ -77.009069767565947, 38.872754923117334 ] } },
{ "type": "Feature", "properties": { "ID": 8072, "ROADNAME": "Suitland Pky", "ROADDIR": "N", "LATITUDE": 38.862222, "LONGITUDE": -76.996944, "SPEED": 0, "GIS_ID": "SpeedDetector_41", "SE_ANNO_CAD_DATA": null, "GLOBALID": "{DD90EB32-3E71-436E-AD0E-BA7B396E8D64}", "CREATOR": null, "CREATED": null, "EDITOR": null, "EDITED": null, "OBJECTID": 41 }, "geometry": { "type": "Point", "coordinates": [ -76.997082034993724, 38.862093667096133 ] } },
{ "type": "Feature", "properties": { "ID": 8073, "ROADNAME": "Suitland Pky", "ROADDIR": "W", "LATITUDE": 38.862222, "LONGITUDE": -76.996944, "SPEED": 0, "GIS_ID": "SpeedDetector_42", "SE_ANNO_CAD_DATA": null, "GLOBALID": "{E6683F4B-29DD-4ED9-9393-4EEA1FBC9494}", "CREATOR": null, "CREATED": null, "EDITOR": null, "EDITED": null, "OBJECTID": 42 }, "geometry": { "type": "Point", "coordinates": [ -76.997075386864879, 38.862091054488253 ] } },
{ "type": "Feature", "properties": { "ID": 8088, "ROADNAME": "South-Capitol-St", "ROADDIR": "N", "LATITUDE": 38.859167, "LONGITUDE": -77.004167, "SPEED": 0, "GIS_ID": "SpeedDetector_43", "SE_ANNO_CAD_DATA": null, "GLOBALID": "{319F8E37-99A6-4607-9204-0D91AB7569E9}", "CREATOR": null, "CREATED": null, "EDITOR": null, "EDITED": null, "OBJECTID": 43 }, "geometry": { "type": "Point", "coordinates": [ -77.004260193338439, 38.859188625921881 ] } },
{ "type": "Feature", "properties": { "ID": 8089, "ROADNAME": "South-Capitol-St", "ROADDIR": "S", "LATITUDE": 38.859167, "LONGITUDE": -77.004167, "SPEED": 0, "GIS_ID": "SpeedDetector_44", "SE_ANNO_CAD_DATA": null, "GLOBALID": "{14F3F5D3-8423-4681-8510-312A758F7C28}", "CREATOR": null, "CREATED": null, "EDITOR": null, "EDITED": null, "OBJECTID": 44 }, "geometry": { "type": "Point", "coordinates": [ -77.004262589402416, 38.85918143711212 ] } },
{ "type": "Feature", "properties": { "ID": 8062, "ROADNAME": "Suitland Pky", "ROADDIR": "S", "LATITUDE": 38.852778, "LONGITUDE": -76.983889, "SPEED": 0, "GIS_ID": "SpeedDetector_45", "SE_ANNO_CAD_DATA": null, "GLOBALID": "{39DCDBF6-DB21-4820-900D-06AFD7D3D2C1}", "CREATOR": null, "CREATED": null, "EDITOR": null, "EDITED": null, "OBJECTID": 45 }, "geometry": { "type": "Point", "coordinates": [ -76.983893967975362, 38.852879269759455 ] } },
{ "type": "Feature", "properties": { "ID": 8063, "ROADNAME": "Suitland Pky", "ROADDIR": "N", "LATITUDE": 38.852778, "LONGITUDE": -76.983889, "SPEED": 0, "GIS_ID": "SpeedDetector_46", "SE_ANNO_CAD_DATA": null, "GLOBALID": "{D6FA8616-CC7A-4D72-8DEB-AEAD8CE4522F}", "CREATOR": null, "CREATED": null, "EDITOR": null, "EDITED": null, "OBJECTID": 46 }, "geometry": { "type": "Point", "coordinates": [ -76.983911837557784, 38.852874146424412 ] } },
{ "type": "Feature", "properties": { "ID": 8061, "ROADNAME": "Suitland Pky", "ROADDIR": "N", "LATITUDE": 38.851389, "LONGITUDE": -76.959444, "SPEED": 0, "GIS_ID": "SpeedDetector_47", "SE_ANNO_CAD_DATA": null, "GLOBALID": "{9C457DC8-A097-41AE-8118-231E8B734AE2}", "CREATOR": null, "CREATED": null, "EDITOR": null, "EDITED": null, "OBJECTID": 47 }, "geometry": { "type": "Point", "coordinates": [ -76.959448535623523, 38.851448321086352 ] } },
{ "type": "Feature", "properties": { "ID": 8060, "ROADNAME": "Suitland Pky", "ROADDIR": "S", "LATITUDE": 38.851389, "LONGITUDE": -76.959444, "SPEED": 0, "GIS_ID": "SpeedDetector_48", "SE_ANNO_CAD_DATA": null, "GLOBALID": "{33A5EF50-6841-49A4-9FC3-C74AE805C3BD}", "CREATOR": null, "CREATED": null, "EDITOR": null, "EDITED": null, "OBJECTID": 48 }, "geometry": { "type": "Point", "coordinates": [ -76.959490005185458, 38.851434570592296 ] } }
]
}
